{
 "generated_at": "2026-06-15T10:55:27Z",
 "sources": [
  {
   "name": "CelesTrak",
   "url": "https://celestrak.org/NORAD/elements/",
   "license": "frei verfügbar; Attribution. Ursprünglich USSPACECOM/Space-Track."
  },
  {
   "name": "GCAT (J. McDowell, planet4589.org)",
   "url": "https://planet4589.org/space/gcat/",
   "license": "CC-BY 4.0"
  }
 ],
 "satellites": [
  {
   "norad": 62384,
   "name": "ICEYE-X49",
   "intl": "2024-247H",
   "group": "sar",
   "gcat": {
    "class": "B",
    "category": "IMG-R",
    "owner": "ICEYE",
    "state": "FI"
   },
   "omm": {
    "OBJECT_NAME": "ICEYE-X49",
    "OBJECT_ID": "2024-247H",
    "EPOCH": "2026-06-14T20:35:18.912192",
    "MEAN_MOTION": 15.12971174,
    "ECCENTRICITY": 0.00011583,
    "INCLINATION": 44.9995,
    "RA_OF_ASC_NODE": 9.8289,
    "ARG_OF_PERICENTER": 266.1798,
    "MEAN_ANOMALY": 93.8947,
    "EPHEMERIS_TYPE": 0,
    "CLASSIFICATION_TYPE": "U",
    "NORAD_CAT_ID": 62384,
    "ELEMENT_SET_NO": 999,
    "REV_AT_EPOCH": 8182,
    "BSTAR": 0.00022163787,
    "MEAN_MOTION_DOT": 0.00003721,
    "MEAN_MOTION_DDOT": 0
   }
  },
  {
   "norad": 63255,
   "name": "ICEYE-X50",
   "intl": "2025-052AX",
   "group": "sar",
   "gcat": {
    "class": "B",
    "category": "IMG-R",
    "owner": "ICEYE",
    "state": "FI"
   },
   "omm": {
    "OBJECT_NAME": "ICEYE-X50",
    "OBJECT_ID": "2025-052AX",
    "EPOCH": "2026-06-15T05:12:44.657856",
    "MEAN_MOTION": 14.95273678,
    "ECCENTRICITY": 0.0001404,
    "INCLINATION": 97.6895,
    "RA_OF_ASC_NODE": 58.1508,
    "ARG_OF_PERICENTER": 162.1373,
    "MEAN_ANOMALY": 197.9897,
    "EPHEMERIS_TYPE": 0,
    "CLASSIFICATION_TYPE": "U",
    "NORAD_CAT_ID": 63255,
    "ELEMENT_SET_NO": 999,
    "REV_AT_EPOCH": 6835,
    "BSTAR": 0.00010524,
    "MEAN_MOTION_DOT": 0.00001102,
    "MEAN_MOTION_DDOT": 0
   }
  },
  {
   "norad": 63257,
   "name": "ICEYE-X51",
   "intl": "2025-052AZ",
   "group": "sar",
   "gcat": {
    "class": "B",
    "category": "IMG-R",
    "owner": "ICEUS",
    "state": "US"
   },
   "omm": {
    "OBJECT_NAME": "ICEYE-X51",
    "OBJECT_ID": "2025-052AZ",
    "EPOCH": "2026-06-15T02:59:04.842240",
    "MEAN_MOTION": 15.00894129,
    "ECCENTRICITY": 0.0001913,
    "INCLINATION": 97.7555,
    "RA_OF_ASC_NODE": 61.2237,
    "ARG_OF_PERICENTER": 67.5952,
    "MEAN_ANOMALY": 292.5474,
    "EPHEMERIS_TYPE": 0,
    "CLASSIFICATION_TYPE": "U",
    "NORAD_CAT_ID": 63257,
    "ELEMENT_SET_NO": 999,
    "REV_AT_EPOCH": 6849,
    "BSTAR": 0.00030757,
    "MEAN_MOTION_DOT": 0.00003855,
    "MEAN_MOTION_DDOT": 0
   }
  },
  {
   "norad": 64572,
   "name": "ICEYE-X52",
   "intl": "2025-135AW",
   "group": "sar",
   "gcat": {
    "class": "B",
    "category": "IMG-R",
    "owner": "ICEYE",
    "state": "FI"
   },
   "omm": {
    "OBJECT_NAME": "ICEYE-X52",
    "OBJECT_ID": "2025-135AW",
    "EPOCH": "2026-06-15T04:39:20.066400",
    "MEAN_MOTION": 14.9355279,
    "ECCENTRICITY": 0.0001777,
    "INCLINATION": 97.7744,
    "RA_OF_ASC_NODE": 280.4643,
    "ARG_OF_PERICENTER": 23.0612,
    "MEAN_ANOMALY": 337.0688,
    "EPHEMERIS_TYPE": 0,
    "CLASSIFICATION_TYPE": "U",
    "NORAD_CAT_ID": 64572,
    "ELEMENT_SET_NO": 999,
    "REV_AT_EPOCH": 5358,
    "BSTAR": 0.00018667,
    "MEAN_MOTION_DOT": 0.00001911,
    "MEAN_MOTION_DDOT": 0
   }
  },
  {
   "norad": 64584,
   "name": "ICEYE-X53",
   "intl": "2025-135BJ",
   "group": "sar",
   "gcat": {
    "class": "B",
    "category": "IMG-R",
    "owner": "ICEYE",
    "state": "FI"
   },
   "omm": {
    "OBJECT_NAME": "ICEYE-X53",
    "OBJECT_ID": "2025-135BJ",
    "EPOCH": "2026-06-15T03:47:09.390912",
    "MEAN_MOTION": 15.00885309,
    "ECCENTRICITY": 0.0001105,
    "INCLINATION": 97.7393,
    "RA_OF_ASC_NODE": 282.9502,
    "ARG_OF_PERICENTER": 146.1369,
    "MEAN_ANOMALY": 213.9926,
    "EPHEMERIS_TYPE": 0,
    "CLASSIFICATION_TYPE": "U",
    "NORAD_CAT_ID": 64584,
    "ELEMENT_SET_NO": 999,
    "REV_AT_EPOCH": 5377,
    "BSTAR": 0.00025601,
    "MEAN_MOTION_DOT": 0.00003198,
    "MEAN_MOTION_DDOT": 0
   }
  },
  {
   "norad": 64570,
   "name": "ICEYE-X54",
   "intl": "2025-135AU",
   "group": "sar",
   "gcat": {
    "class": "B",
    "category": "IMG-R",
    "owner": "ICEYE",
    "state": "FI"
   },
   "omm": {
    "OBJECT_NAME": "ICEYE-X54",
    "OBJECT_ID": "2025-135AU",
    "EPOCH": "2026-06-15T03:35:35.667168",
    "MEAN_MOTION": 14.94531444,
    "ECCENTRICITY": 0.0001535,
    "INCLINATION": 97.7729,
    "RA_OF_ASC_NODE": 280.5923,
    "ARG_OF_PERICENTER": 4.1825,
    "MEAN_ANOMALY": 355.9407,
    "EPHEMERIS_TYPE": 0,
    "CLASSIFICATION_TYPE": "U",
    "NORAD_CAT_ID": 64570,
    "ELEMENT_SET_NO": 999,
    "REV_AT_EPOCH": 5359,
    "BSTAR": 0.00024038,
    "MEAN_MOTION_DOT": 0.0000254,
    "MEAN_MOTION_DDOT": 0
   }
  },
  {
   "norad": 64581,
   "name": "ICEYE-X55",
   "intl": "2025-135BF",
   "group": "sar",
   "gcat": {
    "class": "B",
    "category": "IMG-R",
    "owner": "ICEYE",
    "state": "FI"
   },
   "omm": {
    "OBJECT_NAME": "ICEYE-X55",
    "OBJECT_ID": "2025-135BF",
    "EPOCH": "2026-06-15T03:47:07.554048",
    "MEAN_MOTION": 14.95201468,
    "ECCENTRICITY": 0.0003217,
    "INCLINATION": 97.7747,
    "RA_OF_ASC_NODE": 280.9759,
    "ARG_OF_PERICENTER": 21.5995,
    "MEAN_ANOMALY": 338.536,
    "EPHEMERIS_TYPE": 0,
    "CLASSIFICATION_TYPE": "U",
    "NORAD_CAT_ID": 64581,
    "ELEMENT_SET_NO": 999,
    "REV_AT_EPOCH": 5361,
    "BSTAR": 0.00020733,
    "MEAN_MOTION_DOT": 0.00002221,
    "MEAN_MOTION_DDOT": 0
   }
  },
  {
   "norad": 64574,
   "name": "ICEYE-X56",
   "intl": "2025-135AY",
   "group": "sar",
   "gcat": {
    "class": "B",
    "category": "IMG-R",
    "owner": "ICEYE",
    "state": "FI"
   },
   "omm": {
    "OBJECT_NAME": "ICEYE-X56",
    "OBJECT_ID": "2025-135AY",
    "EPOCH": "2026-06-15T03:47:57.373152",
    "MEAN_MOTION": 14.95602095,
    "ECCENTRICITY": 0.0001902,
    "INCLINATION": 97.7749,
    "RA_OF_ASC_NODE": 281.1318,
    "ARG_OF_PERICENTER": 23.0015,
    "MEAN_ANOMALY": 337.1291,
    "EPHEMERIS_TYPE": 0,
    "CLASSIFICATION_TYPE": "U",
    "NORAD_CAT_ID": 64574,
    "ELEMENT_SET_NO": 999,
    "REV_AT_EPOCH": 5362,
    "BSTAR": 0.00019519,
    "MEAN_MOTION_DOT": 0.00002109,
    "MEAN_MOTION_DDOT": 0
   }
  },
  {
   "norad": 64578,
   "name": "ICEYE-X57",
   "intl": "2025-135BC",
   "group": "sar",
   "gcat": {
    "class": "B",
    "category": "IMG-R",
    "owner": "ICEUS",
    "state": "US"
   },
   "omm": {
    "OBJECT_NAME": "ICEYE-X57",
    "OBJECT_ID": "2025-135BC",
    "EPOCH": "2026-06-15T03:11:47.531328",
    "MEAN_MOTION": 15.00859314,
    "ECCENTRICITY": 0.0001878,
    "INCLINATION": 97.7949,
    "RA_OF_ASC_NODE": 282.5891,
    "ARG_OF_PERICENTER": 61.647,
    "MEAN_ANOMALY": 298.4943,
    "EPHEMERIS_TYPE": 0,
    "CLASSIFICATION_TYPE": "U",
    "NORAD_CAT_ID": 64578,
    "ELEMENT_SET_NO": 999,
    "REV_AT_EPOCH": 5371,
    "BSTAR": 0.00032601,
    "MEAN_MOTION_DOT": 0.00004086,
    "MEAN_MOTION_DDOT": 0
   }
  },
  {
   "norad": 66751,
   "name": "ICEYE-X58",
   "intl": "2025-276CP",
   "group": "sar",
   "gcat": {
    "class": "B",
    "category": "IMG-R",
    "owner": "ICEYE",
    "state": "FI"
   },
   "omm": {
    "OBJECT_NAME": "ICEYE-X58",
    "OBJECT_ID": "2025-276CP",
    "EPOCH": "2026-06-14T11:37:20.427744",
    "MEAN_MOTION": 15.1786356,
    "ECCENTRICITY": 0.00034048,
    "INCLINATION": 97.4206,
    "RA_OF_ASC_NODE": 238.9842,
    "ARG_OF_PERICENTER": 19.3299,
    "MEAN_ANOMALY": 340.8064,
    "EPHEMERIS_TYPE": 0,
    "CLASSIFICATION_TYPE": "U",
    "NORAD_CAT_ID": 66751,
    "ELEMENT_SET_NO": 999,
    "REV_AT_EPOCH": 3000,
    "BSTAR": 0.00015330747,
    "MEAN_MOTION_DOT": 0.00003038,
    "MEAN_MOTION_DDOT": 0
   }
  }
 ]
}
