ICEYE-X49               
1 62384U 24247H   26165.85785778  .00003721  00000+0  22164-3 0  9997
2 62384  44.9995   9.8289 0001158 266.1798  93.8947 15.12971174 81822
ICEYE-X50               
1 63255U 25052AX  26166.21718354  .00001102  00000+0  10524-3 0  9995
2 63255  97.6895  58.1508 0001404 162.1373 197.9897 14.95273678 68350
ICEYE-X51               
1 63257U 25052AZ  26166.12436160  .00003855  00000+0  30757-3 0  9996
2 63257  97.7555  61.2237 0001913  67.5952 292.5474 15.00894129 68491
ICEYE-X54               
1 64570U 25135AU  26166.14971837  .00002540  00000+0  24038-3 0  9999
2 64570  97.7729 280.5923 0001535   4.1825 355.9407 14.94531444 53592
ICEYE-X52               
1 64572U 25135AW  26166.19398225  .00001911  00000+0  18667-3 0  9992
2 64572  97.7744 280.4643 0001777  23.0612 337.0688 14.93552790 53588
ICEYE-X56               
1 64574U 25135AY  26166.15830293  .00002109  00000+0  19519-3 0  9993
2 64574  97.7749 281.1318 0001902  23.0015 337.1291 14.95602095 53621
ICEYE-X57               
1 64578U 25135BC  26166.13318902  .00004086  00000+0  32601-3 0  9996
2 64578  97.7949 282.5891 0001878  61.6470 298.4943 15.00859314 53711
ICEYE-X55               
1 64581U 25135BF  26166.15772632  .00002221  00000+0  20733-3 0  9998
2 64581  97.7747 280.9759 0003217  21.5995 338.5360 14.95201468 53614
ICEYE-X53               
1 64584U 25135BJ  26166.15774758  .00003198  00000+0  25601-3 0  9995
2 64584  97.7393 282.9502 0001105 146.1369 213.9926 15.00885309 53775
ICEYE-X58               
1 66751U 25276CP  26165.48426421  .00003038  00000+0  15331-3 0  9997
2 66751  97.4206 238.9842 0003404  19.3299 340.8064 15.17863560 30005
